PRAETORIAN SDA_617      
1 65580U 25203R   26087.71132179  .00000082  00000+0  64072-4 0  9992
2 65580  81.2997  85.3011 0008580  55.5025 304.6940 13.83193779 27560
PRAETORIAN SDA_618      
1 65581U 25203S   26087.70332103  .00000380  00000+0  32709-3 0  9993
2 65581  81.2986  85.0991 0010874  55.3381 304.8799 13.84763246 27573
PRAETORIAN SDA_619      
1 65582U 25203T   26087.69060516  .00000316  00000+0  27428-3 0  9999
2 65582  81.3003  85.2843 0009101  54.0332 306.1667 13.83933419 28194
PRAETORIAN SDA_620      
1 65583U 25203U   26087.70281091  .00000263  00000+0  22726-3 0  9992
2 65583  81.2993  85.2718 0008591  53.5924 306.6023 13.83707607 27565
PRAETORIAN SDA_621      
1 65584U 25203V   26087.68575208  .00000082  00000+0  62950-4 0  9999
2 65584  81.2980  85.2329 0008410  50.2738 309.9158 13.83789763 27565
PRAETORIAN SDA_601      
1 65585U 25203W   26087.70162376  .00000412  00000+0  36355-3 0  9997
2 65585  81.2998  85.4442 0006553  65.5339 294.6500 13.83486638 27550
