[{"OBJECT_NAME":"PRAETORIAN SDA_617","OBJECT_ID":"2025-203R","EPOCH":"2026-03-28T17:04:18.202656","MEAN_MOTION":13.83193779,"ECCENTRICITY":0.000858,"INCLINATION":81.2997,"RA_OF_ASC_NODE":85.3011,"ARG_OF_PERICENTER":55.5025,"MEAN_ANOMALY":304.694,"EPHEMERIS_TYPE":0,"CLASSIFICATION_TYPE":"U","NORAD_CAT_ID":65580,"ELEMENT_SET_NO":999,"REV_AT_EPOCH":2756,"BSTAR":6.4072e-5,"MEAN_MOTION_DOT":8.2e-7,"MEAN_MOTION_DDOT":0},{"OBJECT_NAME":"PRAETORIAN SDA_618","OBJECT_ID":"2025-203S","EPOCH":"2026-03-28T16:52:46.936992","MEAN_MOTION":13.84763246,"ECCENTRICITY":0.0010874,"INCLINATION":81.2986,"RA_OF_ASC_NODE":85.0991,"ARG_OF_PERICENTER":55.3381,"MEAN_ANOMALY":304.8799,"EPHEMERIS_TYPE":0,"CLASSIFICATION_TYPE":"U","NORAD_CAT_ID":65581,"ELEMENT_SET_NO":999,"REV_AT_EPOCH":2757,"BSTAR":0.00032709,"MEAN_MOTION_DOT":3.8e-6,"MEAN_MOTION_DDOT":0},{"OBJECT_NAME":"PRAETORIAN SDA_619","OBJECT_ID":"2025-203T","EPOCH":"2026-03-28T16:34:28.285824","MEAN_MOTION":13.83933419,"ECCENTRICITY":0.0009101,"INCLINATION":81.3003,"RA_OF_ASC_NODE":85.2843,"ARG_OF_PERICENTER":54.0332,"MEAN_ANOMALY":306.1667,"EPHEMERIS_TYPE":0,"CLASSIFICATION_TYPE":"U","NORAD_CAT_ID":65582,"ELEMENT_SET_NO":999,"REV_AT_EPOCH":2819,"BSTAR":0.00027428,"MEAN_MOTION_DOT":3.16e-6,"MEAN_MOTION_DDOT":0},{"OBJECT_NAME":"PRAETORIAN SDA_620","OBJECT_ID":"2025-203U","EPOCH":"2026-03-28T16:52:02.862624","MEAN_MOTION":13.83707607,"ECCENTRICITY":0.0008591,"INCLINATION":81.2993,"RA_OF_ASC_NODE":85.2718,"ARG_OF_PERICENTER":53.5924,"MEAN_ANOMALY":306.6023,"EPHEMERIS_TYPE":0,"CLASSIFICATION_TYPE":"U","NORAD_CAT_ID":65583,"ELEMENT_SET_NO":999,"REV_AT_EPOCH":2756,"BSTAR":0.00022726,"MEAN_MOTION_DOT":2.63e-6,"MEAN_MOTION_DDOT":0},{"OBJECT_NAME":"PRAETORIAN SDA_621","OBJECT_ID":"2025-203V","EPOCH":"2026-03-28T16:27:28.979712","MEAN_MOTION":13.83789763,"ECCENTRICITY":0.000841,"INCLINATION":81.298,"RA_OF_ASC_NODE":85.2329,"ARG_OF_PERICENTER":50.2738,"MEAN_ANOMALY":309.9158,"EPHEMERIS_TYPE":0,"CLASSIFICATION_TYPE":"U","NORAD_CAT_ID":65584,"ELEMENT_SET_NO":999,"REV_AT_EPOCH":2756,"BSTAR":6.295e-5,"MEAN_MOTION_DOT":8.2e-7,"MEAN_MOTION_DDOT":0},{"OBJECT_NAME":"PRAETORIAN SDA_601","OBJECT_ID":"2025-203W","EPOCH":"2026-03-28T16:50:20.292864","MEAN_MOTION":13.83486638,"ECCENTRICITY":0.0006553,"INCLINATION":81.2998,"RA_OF_ASC_NODE":85.4442,"ARG_OF_PERICENTER":65.5339,"MEAN_ANOMALY":294.65,"EPHEMERIS_TYPE":0,"CLASSIFICATION_TYPE":"U","NORAD_CAT_ID":65585,"ELEMENT_SET_NO":999,"REV_AT_EPOCH":2755,"BSTAR":0.00036355,"MEAN_MOTION_DOT":4.12e-6,"MEAN_MOTION_DDOT":0}]
